[{"OBJECT_NAME":"NEXTSAT-2","OBJECT_ID":"2023-072A","EPOCH":"2026-03-09T23:10:55.073280","MEAN_MOTION":15.26393087,"ECCENTRICITY":0.00062633,"INCLINATION":97.5306,"RA_OF_ASC_NODE":265.1019,"ARG_OF_PERICENTER":22.4193,"MEAN_ANOMALY":337.7318,"EPHEMERIS_TYPE":0,"CLASSIFICATION_TYPE":"U","NORAD_CAT_ID":56743,"ELEMENT_SET_NO":999,"REV_AT_EPOCH":15445,"BSTAR":0.00056400163,"MEAN_MOTION_DOT":0.00014622,"MEAN_MOTION_DDOT":0},{"OBJECT_NAME":"STARLINK-33691","OBJECT_ID":"2025-070C","EPOCH":"2026-03-09T13:54:47.337120","MEAN_MOTION":15.27606595,"ECCENTRICITY":0.0002174,"INCLINATION":43.0015,"RA_OF_ASC_NODE":260.0728,"ARG_OF_PERICENTER":299.0633,"MEAN_ANOMALY":61,"EPHEMERIS_TYPE":0,"CLASSIFICATION_TYPE":"U","NORAD_CAT_ID":63462,"ELEMENT_SET_NO":999,"REV_AT_EPOCH":5291,"BSTAR":0.0012258,"MEAN_MOTION_DOT":0.00033652,"MEAN_MOTION_DDOT":0}]
